SL-8 R/B                
1 11574U 79089B   26083.93517138  .00000213  00000+0  72260-4 0  9993
2 11574  74.0678  62.8191 0016851 233.6311 126.3291 14.42358915438303
SL-14 R/B               
1 11672U 80005B   26083.82823298  .00000546  00000+0  52610-4 0  9993
2 11672  82.5117 292.8736 0017166 111.0324 249.2734 14.90946475478743
SL-8 R/B                
1 12139U 81003B   26083.96475892  .00019405  00000+0  48820-3 0  9990
2 12139  82.9353 275.8920 0261221 125.4395 237.1532 15.11623563316987
SL-3 R/B                
1 12465U 81046B   26083.96723591  .00010192  00000+0  23414-3 0  9997
2 12465  81.2287 271.3900 0018395 328.4732  31.5407 15.42361280440780
SL-3 R/B                
1 12904U 81103B   26083.89857733  .00004871  00000+0  21465-3 0  9998
2 12904  81.1607 195.5914 0012664 232.0394 127.9694 15.21554812975549
SL-3 R/B                
1 13068U 82013B   26083.90049149  .00004179  00000+0  17977-3 0  9991
2 13068  81.1741 142.9426 0023421 127.3132 233.0239 15.22153002406666
SL-3 R/B                
1 13154U 82039B   26083.89660940  .00002613  00000+0  15724-3 0  9990
2 13154  81.1573 198.4281 0028886 274.3455  85.4470 15.10163492383932
SL-3 R/B                
1 13403U 82079B   26083.95595928  .00004994  00000+0  19725-3 0  9990
2 13403  81.1482 175.0525 0025510 114.4815 245.9083 15.25004056380021
SL-14 R/B               
1 13553U 82092B   26083.87554661  .00000417  00000+0  44030-4 0  9995
2 13553  82.5665 127.1940 0018853 249.1877 283.5066 14.86679594331183
SL-3 R/B                
1 13819U 83010B   26083.96488747  .00013346  00000+0  26351-3 0  9992
2 13819  81.1050 343.5149 0016422 359.7697   0.3537 15.46869287360305
SL-3 R/B                
1 14208U 83075B   26083.97066046  .00010213  00000+0  26661-3 0  9995
2 14208  97.6148  89.1310 0021795 169.7979 190.3712 15.38769570332503
COSMOS 1536             
1 14699U 84013A   26083.82220192  .00006426  00000+0  26329-3 0  9992
2 14699  82.5421  92.8018 0012972 223.2954 136.7265 15.24024346274924
SL-14 R/B               
1 14820U 84027B   26083.91132051  .00000505  00000+0  54941-4 0  9993
2 14820  82.5407 230.7346 0016512 284.2558  75.6824 14.85991530249896
SL-8 R/B                
1 15483U 85006B   26083.90686859  .00000322  00000+0  11551-3 0  9992
2 15483  74.0444 233.1449 0017829 146.6776 331.5463 14.37793939156211
SL-12 R/B(2)            
1 15772U 85042D   26083.95891584  .00000159  00000+0  92899-4 0  9994
2 15772  71.1077  55.4662 0032851 102.8296 316.9395 14.21986597116569
SL-14 R/B               
1 15945U 85069B   26083.89147586  .00000513  00000+0  55134-4 0  9999
2 15945  82.5304  10.6420 0019785 138.3804 221.8923 14.86449210175096
SL-16 R/B               
1 16182U 85097B   26083.83715544  .00000132  00000+0  90130-4 0  9995
2 16182  71.0010 108.6635 0009523 241.9352 290.7538 14.16602925 89370
